Number,ID,ID-Name,PlaceName,District,PositionX,PositionY,TypeScoring,Latitude,Longtitude
1,0001,A,ลานกีฬาโรงเรียนวัดคณิกาผล,เขตพระนคร-ป้อมปราบ,2,-1,B,13.74456656,100.5100228
2,0002,A,ลานกีฬาโรงเรียนวัดดิสานุการาม,เขตพระนคร-ป้อมปราบ,2.4,-1,B,13.74911723,100.5080232
3,0003,A,ลานกีฬาโรงเรียนวัดสิตาราม,เขตพระนคร-ป้อมปราบ,2.35,-1,B,13.75520239,100.5101207
4,0004,A,ลานกีฬาโรงเรียนวัดพระพิเรนทร์,เขตพระนคร-ป้อมปราบ,2.3,-1,B,13.74763442,100.5057952
6,0006,A,ลานกีฬากองกำกับการสวัสดิภาพเด็ก,เขตพระนคร-ป้อมปราบ,2,0,F,13.7571612,100.5068593
10,0010,A,สนามกีฬาโรงเรียนเทพศิรินทร์,เขตพระนคร-ป้อมปราบ,2.25,-1,B,13.74665696,100.5158393
11,0011,A,ลานกีฬาโรงเรียนวัดสระเกศ,เขตพระนคร-ป้อมปราบ,2.2,-1,B,13.75327569,100.5090931
12,0012,A,ลานกีฬาโรงเรียนวัดพลับพลาชัย,เขตพระนคร-ป้อมปราบ,2.15,-1,B,13.74576764,100.5130238
13,0013,A,ลานกีฬาโรงเรียนสายปัญญา,เขตพระนคร-ป้อมปราบ,2.1,-1,B,13.74309937,100.5152721
14,0014,A,ลานกีฬาโรงเรียนวัดโสมนัส,เขตพระนคร-ป้อมปราบ,2.05,-1,B,13.76104461,100.5114486
15,0015,A,ลานโรงเรียนสมานศึกษาวิทยา,เขตพระนคร-ป้อมปราบ,-2,-1,E,13.7476513,100.5093984
16,0016,A,ลานกีฬาโรงเรียนสตรีจุลนาค,เขตพระนคร-ป้อมปราบ,-1.6,-1,E,13.75732043,100.5088501
17,0017,A,ลานวัดสระเกศราชวรมหาวิหาร,เขตพระนคร-ป้อมปราบ,-1,0,H,13.75379255,100.5075781
18,0018,A,ลานวัดโสมนัสราชวรวิหาร,เขตพระนคร-ป้อมปราบ,-0.6,0,H,13.76148413,100.5108743
19,0019,A,ลานวัดเทพศิรินทราวาส,เขตพระนคร-ป้อมปราบ,-0.65,0,H,13.74703285,100.512731
20,0020,A,ลานวัดเทวีวรญาติ,เขตพระนคร-ป้อมปราบ,-0.7,0,H,13.74943853,100.5093093
21,0021,A,ลานวัดสุนทรธรรมทาน (วัดแค),เขตพระนคร-ป้อมปราบ,-0.75,0,H,13.75756464,100.5109027
22,0022,A,ลานวัดคณิกาผล,เขตพระนคร-ป้อมปราบ,-0.8,0,H,13.74431626,100.5100846
23,0023,A,ลานวัดสิตาราม (วัดคอกหมู),เขตพระนคร-ป้อมปราบ,-0.85,0,H,13.75551536,100.510279
24,0024,A,ลานวัดมังกรกมลาวาส (วัดเล่งเน่ยยี่),เขตพระนคร-ป้อมปราบ,-0.9,0,H,13.74349842,100.5095172
25,0025,A,ลานวัดพลับพลาชัย,เขตพระนคร-ป้อมปราบ,-0.95,0,H,13.74578245,100.5122541
26,0026,A,ลานวัดดิสานุการาม,เขตพระนคร-ป้อมปราบ,-1.05,0,H,13.74916669,100.5083534
27,0027,A,ลานวัดพระพิเรนทร์,เขตพระนคร-ป้อมปราบ,-1.1,0,H,13.74804289,100.5055734
28,0028,A,ลานเอนกประสงค์โรงพยาบาลกลาง,เขตพระนคร-ป้อมปราบ,2,-2,B,13.74665487,100.5096414
29,0029,A,สวนชุมชนมัสยิดมหานาค,เขตพระนคร-ป้อมปราบ,0,0,C,13.75207918,100.515198
30,0030,A,สวนในวังวรดิศ,เขตพระนคร-ป้อมปราบ,-1.65,-1,E,13.75593245,100.5133032
32,0032,A,สวนรมณีนาถ,เขตพระนคร-ป้อมปราบ,2.4,0,F,13.74910074,100.5028181
33,0033,A,สวนสราญรมย์,เขตพระนคร-ป้อมปราบ,2.35,0,F,13.74812004,100.4952753
34,0034,A,สวนสันติชัยปราการ,เขตพระนคร-ป้อมปราบ,2.3,0,F,13.763964,100.4952696
36,0036,A,สวนสันติพร,เขตพระนคร-ป้อมปราบ,2.25,0,F,13.75865607,100.4957466
37,0037,A,สวนสาธารณะป้อมมหากาฬ,เขตพระนคร-ป้อมปราบ,2.2,0,F,13.75491204,100.5054961
38,0038,A,สนามหลวง,เขตพระนคร-ป้อมปราบ,-1.15,0,H,13.75534588,100.4930209
39,0039,A,ลานอนุสรณ์ 14 ตุลา,เขตพระนคร-ป้อมปราบ,1,1,A,13.75681467,100.4990897
40,0040,A,ลานพิพิธบางลำภู,เขตพระนคร-ป้อมปราบ,2.15,0,F,13.76370331,100.4963047
41,0041,A,ลานคนเมือง,เขตพระนคร-ป้อมปราบ,2,1,A,13.75267647,100.5015091
42,0042,A,ลานกีฬาโรงเรียนราชนัดดา,เขตพระนคร-ป้อมปราบ,2.1,0,F,13.75549634,100.5038606
43,0043,A,ลานกีฬาโรงเรียนวัดบวรนิเวศ,เขตพระนคร-ป้อมปราบ,2.05,0,F,13.75948038,100.5017544
44,0044,A,ลานกีฬาโรงเรียนวัดมหาธาตุ,เขตพระนคร-ป้อมปราบ,1.95,0,F,13.75604228,100.4899231
45,0045,A,ลานกีฬาโรงเรียนวัดราชบูรณะ,เขตพระนคร-ป้อมปราบ,1.9,0,F,13.74297194,100.499383
46,0046,A,ลานกีฬามัสยิดจักรพงษ์,เขตพระนคร-ป้อมปราบ,-2,0,H,13.76182478,100.4968947
47,0047,A,สนามกีฬาโรงเรียนสวนกุหลาบ,เขตพระนคร-ป้อมปราบ,1.95,-1,B,13.74282533,100.4981961
48,0048,A,ลานโรงเรียนวัดราชบพิธ,เขตพระนคร-ป้อมปราบ,1.9,-1,B,13.74430234,100.4949583
49,0049,A,ลานกีฬาโรงเรียนราชินี,เขตพระนคร-ป้อมปราบ,-1.7,-1,E,13.74267264,100.4933033
51,0051,A,ลานศูนย์การค้าท่ามหาราข,เขตพระนคร-ป้อมปราบ,-1.6,0,H,13.75483286,100.488686
52,0052,A,ลานริมน้ำตลาดยอดพิมาน,เขตพระนคร-ป้อมปราบ,-1.65,0,H,13.74098293,100.4953598
53,0053,A,วัดพระศรีรัตนศาสดาราม,เขตพระนคร-ป้อมปราบ,-1,-1,E,13.75155923,100.4925384
54,0054,A,วัดพระเชตุพนวิมลมังคลาราม,เขตพระนคร-ป้อมปราบ,-1.2,0,H,13.74655308,100.4931554
55,0055,A,วัดสุทัศนเทพวราราม,เขตพระนคร-ป้อมปราบ,-1.25,0,H,13.7510086,100.5010139
56,0056,A,วัดราชบพิธสถิตมหาสีมาราม,เขตพระนคร-ป้อมปราบ,-1.3,0,H,13.74909807,100.4973031
58,0058,A,วัดบวรนิเวศวิหาร,เขตพระนคร-ป้อมปราบ,-1,0.4,H,13.76026196,100.4998066
59,0059,A,วัดเทพธิดาราม,เขตพระนคร-ป้อมปราบ,-0.6,0.4,H,13.75345361,100.5041585
60,0060,A,วัดอินทรวิหาร,เขตพระนคร-ป้อมปราบ,-0.65,0.4,H,13.76693766,100.5028601
61,0061,A,วัดมกุฏกษัตริยาราม,เขตพระนคร-ป้อมปราบ,-0.7,0.4,H,13.76410656,100.5066439
62,0062,A,วัดใหม่อมตรส,เขตพระนคร-ป้อมปราบ,-0.75,0.4,H,13.76443271,100.5015679
63,0063,A,วัดนรนารถสุนทริการาม,เขตพระนคร-ป้อมปราบ,-0.8,0.4,H,13.76963687,100.502833
64,0064,A,วัดเอี่ยมวรนุช,เขตพระนคร-ป้อมปราบ,-0.85,0.4,H,13.76624624,100.5009608
65,0065,A,วัดราชนัดดาราม,เขตพระนคร-ป้อมปราบ,-0.9,0.4,H,13.75486862,100.5041088
67,0067,A,ลานปฐมพระบรมราชานุสาวรีย์เฉลิมพระเกียรต,เขตพระนคร-ป้อมปราบ,2.4,1,A,13.74114767,100.4982117
68,0068,A,สวนในวัดสังเวสวิศยาราม,เขตพระนคร-ป้อมปราบ,-2,1,D,13.76416565,100.4978449
69,0069,A,พิพิธภัณฑ์การเรียนรู้แห่งชาติ Museum Siam,เขตพระนคร-ป้อมปราบ,1,-1,B,13.74432283,100.494185
71,0071,A,สวนสาธารณะสะพานพระราม 8,เขตพระนคร-ป้อมปราบ,1.85,0,F,13.76916132,100.4952519
74,0074,A,ลานวัดศาลาแดง,เขตบางแค,-1,1,D,13.75069717,100.3542855
75,0075,A,ลานวัดบุณยประดิษฐ์ พระอารามหลวง,เขตบางแค,-0.6,1,D,13.72927915,100.3885439
76,0076,A,ลานวัดพรหมสุวรรณสามัคคี,เขตบางแค,-1,2,D,13.73010997,100.3685314
77,0077,A,ลานวัดม่วง,เขตบางแค,-0.95,0.4,H,13.69518307,100.392836
78,0078,A,ลานวัดราษฎร์บำรุง,เขตบางแค,-1.05,0.4,H,13.70130943,100.3775045
79,0079,A,ลาน BIG - C เพชรเกษม,เขตบางแค,-1.7,0,H,13.70720122,100.3818765
80,0080,A,ลาน The Mall บางแค,เขตบางแค,-1.75,0,H,13.71333608,100.4075443
81,0081,A,ลาน Tesco Lotus บางแค,เขตบางแค,-1.8,0,H,13.71210476,100.4188831
82,0082,A,ลานศูนย์การค้า Victoria Garden,เขตบางแค,-1.85,0,H,13.70731088,100.3758474
83,0083,A,ลานสำเพ็ง 2,เขตบางแค,-1.9,0,H,13.6844949,100.4125301
84,0084,A,ลานตลาดอินดี้,เขตบางแค,-1.95,0,H,13.68564401,100.4221002
85,0085,A,ลานกีฬาชุมชนสินทรัพย์นครการ์เด้น 1,เขตบางแค,-2.05,0,H,13.68054209,100.4077583
86,0086,A,ลานกีฬาชุมชนสินทรัพย์นครการ์เด้น 2,เขตบางแค,-2.1,0,H,13.67894058,100.4085817
87,0087,A,ลานกีฬาโรงเรียนคลองหนองใหญ่,เขตบางแค,1.85,-1,B,13.68967451,100.4174524
88,0088,A,ลานกีฬาสำนักงานเขตบางแค,เขตบางแค,1.8,0,F,13.69637936,100.4091076
91,0091,A,ลานกีฬาอาคารสงเคราะห์บางบอน,เขตบางแค,0,-1,I,13.67743274,100.395799
92,0092,A,ลานกีฬาหมู่บ้านร่มเย็น,เขตบางแค,0.4,-1,I,13.69179247,100.3942004
93,0093,A,ลานกีฬาโรงเรียนบางแค,เขตบางแค,1.8,-1,B,13.70741608,100.4007523
94,0094,A,ลานกีฬาโรงเรียนเพชรเกษม,เขตบางแค,1.75,-1,B,13.70468618,100.3845256
95,0095,A,ลานกีฬาวงเวียนอู่ทอง,เขตบางแค,0.4,0,C,13.71860505,100.377775
96,0096,A,ลานกีฬาวงเวียนทะเลสาป,เขตบางแค,0.35,-1,I,13.73144051,100.3752941
97,0097,A,ลานกีฬาหมู่บ้านชมเดือน,เขตบางแค,0.3,-1,I,13.72223136,100.3881015
98,0098,A,ลานกีฬาวงเวียนหมู่บ้านเศรษฐกิจ ผัง ข,เขตบางแค,0.25,-1,I,13.71821829,100.375542
99,0099,A,ลานกีฬาโรงเรียนบ้านเศรษฐกิจ,เขตบางแค,1.7,-1,B,13.71531509,100.3747538
100,0100,A,ลานกีฬาถนนฉัตรชัยเสริมโชค,เขตบางแค,0.35,0,C,13.73584114,100.3590004
101,0101,A,ลานกีฬาโรงเรียนวัดศาลาแดง,เขตบางแค,2,-0.6,B,13.74949266,100.3548135
103,0103,A,ลานกีฬาโรงเรียนวัดมะพร้าวเตี้ย,เขตบางแค,2.4,-0.6,B,13.74405248,100.420333
105,0105,A,โรงเรียนปัญญาวรคุณ,เขตบางแค,0.3,0,C,13.69331567,100.3919305
106,0106,A,สนามฟุตบอลโรงเรียนสารสาสน์วิเทศธนบุรี,เขตบางแค,-1.75,-1,E,13.73329931,100.3645748
107,0107,A,สนามกีฬาโรงเรียนอัสสัมชัญธนบุรี,เขตบางแค,-1.8,-1,E,13.73410393,100.3706601
108,0108,A,สวนหมู่บ้านแกรน์ดิโอ ซอยสุขสันต์ 6 ถนนกาญจนาภิเษก เขตบางแค,เขตบางแค,-1.85,-1,E,13.69535592,100.4000065
109,0109,A,สวนหมู่บ้านลัดดารมย์อิลิแกรน์(วงแหวน-สาธร) ถนนกาญจนาภิเษก เขตบางแค,เขตบางแค,-1.9,-1,E,13.69798436,100.4060428
110,0110,A,สวนหมู่บ้านโกลเด็นทาวน์ ซอยสุขสันต์ 6 ถนนกาญจนาภิเษก เขตบางแค,เขตบางแค,-1.95,-1,E,13.69353075,100.3998898
112,0112,A,สวนหมู่บ้านปฐมพร ถนนสายบางแวก เขตบางแค,เขตบางแค,-2.05,-1,E,13.74908812,100.3649136
113,0113,A,สวนหมู่บ้าน มัณฑนา ถนนบางแวก เขตบางแค,เขตบางแค,-2.1,-1,E,13.74185487,100.3853512
114,0114,A,สวนหมู่บ้านมัณฑนา ถนนกาญจนาภิเษก,เขตบางแค,-2.15,-1,E,13.6823204,100.4034836
115,0115,A,สวนหมู่บ้านนันทวัน,เขตบางแค,-2.2,-1,E,13.73793447,100.4010783
116,0116,A,สวนหมู่บ้าน PRUKSA ถนนเลียบคลองทวีวัฒนา เขตบางแค,เขตบางแค,-2.25,-1,E,13.72501682,100.3660619
117,0117,A,สวนบางแคภิรมย์,เขตบางแค,0.25,0,C,13.68583382,100.3854553
118,0118,A,สวนหมู่บ้าน Hobiti Line ถนนบางแวก เขตบางแค,เขตบางแค,-2.3,-1,E,13.74504393,100.3808844
119,0119,A,สวนหมู่บ้าน The idol 1 ถนนเลียบคลองทวีวัฒนา,เขตบางแค,-2,-0.6,E,13.71315935,100.3712962
120,0120,A,สวนหมู่บ้านมณฑล 8 ถนนเลียบคลองทวีวัฒนา เขตบางแค,เขตบางแค,-1.6,-0.6,E,13.72076755,100.3696844
121,0121,A,สวนหมู่บ้าน บ้านริมน้ำ ถนนบางแวก เขตบางแค,เขตบางแค,-1.65,-0.6,E,13.74581585,100.3560558
122,0122,A,สวนใหมู่บ้าน The WATER HOUSE ถนนร่มไทร เขตบางแค,เขตบางแค,-1.7,-0.6,E,13.67065061,100.3901987
123,0123,A,สวนหมู่บ้านศศิมณฑล,เขตบางแค,-1.75,-0.6,E,13.74508053,100.4038293
124,0124,A,สวนหย่อมไร่เหมือนจันทร์,เขตบางแค,-2,2,D,13.73862541,100.3593332
125,0125,A,สวนป่าใต้สะพานทางด่วนถนนกาญจนาภิเษกติดถนนเพชรเกษม,เขตบางแค,-1.6,2,D,13.7111981,100.406657
126,0126,A,สวนหมู่บ้านจัดสรรดิเอ็มเพอเรอนาราสิริคอเล็กชั่น,เขตบางแค,-1.65,2,D,13.6798691,100.4024012
127,0127,A,สวนป่ากาญจนาภิเษก,เขตบางแค,-1.7,2,D,13.71237992,100.4057485
128,0128,A,สวนหมู่บ้านซิตี้เซนส์ เพชรเกษม 69,เขตบางแค,-1.75,2,D,13.70187255,100.3820573
129,0129,A,สวนหมู่บ้านลัดดารมย์,เขตบางแค,-1.8,2,D,13.73076143,100.4217718
130,0130,A,ลานเติมฝัน,เขตบางแค,0,2,G,13.69690808,100.4089295
131,0131,A,พื้นที่โรงพยาบาลราชพิพัฒน์,เขตบางแค,0.4,2,G,13.73070181,100.3670547
133,0133,A,ลานกีฬาใต้สะพานอนุทินสวัสดิ์,เขตธนบุรี,0.2,0,C,13.73998594,100.4890592
134,0134,A,ลานกีฬากัลยาณ์ร่มเกล้า,เขตธนบุรี,0.15,0,C,13.74101532,100.4912078
143,0143,A,ลานกีฬาใต้สะพานตลาดพลู,เขตธนบุรี,0.1,0,C,13.72212919,100.4771318
144,0144,A,ลานกีฬาวัดราชคฤห์,เขตธนบุรี,-0.65,1,D,13.72272239,100.4799276
145,0145,A,ลานกีฬาโรงเรียนกันตทาราราม,เขตธนบุรี,2.35,-0.6,B,13.71780222,100.4784031
146,0146,A,ลานกีฬาโรงเรียนกระจับพินิจ,เขตธนบุรี,2.3,-0.6,B,13.71478593,100.4859181
148,0148,A,สวนสาธารณะและลานกีฬาใต้สะพานตากสิน-เพชรเกษม,เขตธนบุรี,1.75,0,F,13.72029914,100.5094987
149,0149,A,ลานกีฬาสุทธาราม,เขตธนบุรี,0.05,0,C,13.71311818,100.4938291
150,0150,A,ลานกีฬาวัดราชวรินทร์,เขตธนบุรี,-1.1,0.4,H,13.70909869,100.4919171
151,0151,A,ลานกีฬาโรงเรียนวัดบางน้ำชน,เขตธนบุรี,2.25,-0.6,B,13.70424912,100.4907143
152,0152,A,ลานกีฬารวมใจพระราม 3,เขตธนบุรี,-0.05,0,C,13.70263414,100.4899587
154,0154,A,ลานกีฬาโรงเรียนวัดบุคคโล,เขตธนบุรี,2.2,-0.6,B,13.70020854,100.4884997
156,0156,A,ลาน BIG - C ดาวคะนอง,เขตธนบุรี,-1.8,-0.6,E,13.69905946,100.4835011
157,0157,A,สนามกีฬากรมแพทย์ทหารเรือ,เขตธนบุรี,1.7,0,F,13.70883223,100.484851
158,0158,A,ลานวัดกระจับพินิจ,เขตธนบุรี,-0.6,2,D,13.71520369,100.4854218
159,0159,A,ลานวัดกลางดาวคนอง,เขตธนบุรี,-1.15,0.4,H,13.69681188,100.4884277
160,0160,A,ลานวัดกันตทาราราม,เขตธนบุรี,-1.2,0.4,H,13.71898746,100.4791746
161,0161,A,ลานวัดกัลยาณมิตรวรมหาวิหาร,เขตธนบุรี,-1.25,0.4,H,13.74066237,100.4919316
162,0162,A,ลานวัดจันทารามวรวิหาร,เขตธนบุรี,-1.3,0.4,H,13.72223138,100.4812023
163,0163,A,ลานวัดดาวคะนอง,เขตธนบุรี,-1,0.3,H,13.69604713,100.4885851
164,0164,A,ลานวัดบางน้ำชน,เขตธนบุรี,-0.6,0.3,H,13.70458645,100.4906589
165,0165,A,ลานวัดบางสะแกนอก,เขตธนบุรี,-0.65,0.3,H,13.71608785,100.4760348
166,0166,A,ลานวัดบางสะแกใน,เขตธนบุรี,-0.7,0.3,H,13.7119753,100.4761046
167,0167,A,ลานวัดบางไส้ไก่,เขตธนบุรี,-0.75,0.3,H,13.73255881,100.4890497
168,0168,A,ลานวัดบุคคโล,เขตธนบุรี,-0.8,0.3,H,13.6999235,100.4892978
169,0169,A,ลานวัดบุปผารามวรวิหาร,เขตธนบุรี,-0.85,0.3,H,13.73538723,100.4924576
170,0170,A,ลานวัดประดิษฐาราม (กรุงเทพมหานคร),เขตธนบุรี,-0.9,0.3,H,13.73416133,100.4878731
171,0171,A,ลานวัดประยุรวงศาวาสวรวิหาร,เขตธนบุรี,-0.95,0.3,H,13.73706292,100.4958459
172,0172,A,ลานวัดโพธินิมิตรสถิตมหาสีมาราม,เขตธนบุรี,-1.05,0.3,H,13.72079413,100.4841839
173,0173,A,ลานวัดราชคฤห์วรวิหาร,เขตธนบุรี,-1.1,0.3,H,13.7226521,100.4797502
174,0174,A,ลานวัดราชวรินทร์,เขตธนบุรี,-1.15,0.3,H,13.70910614,100.4919516
175,0175,A,ลานวัดวรามาตยภัณฑสาราราม,เขตธนบุรี,-1.2,0.3,H,13.72020412,100.4713061
176,0176,A,ลานวัดเวฬุราชิณ,เขตธนบุรี,-1.25,0.3,H,13.72554514,100.4860437
177,0177,A,ลานวัดสันติธรรมาราม,เขตธนบุรี,-1.3,0.3,H,13.70718748,100.4888192
178,0178,A,ลานวัดสุทธาวาส (เขตธนบุรี),เขตธนบุรี,-1,0.2,H,13.70788651,100.4823182
179,0179,A,ลานวัดหิรัญรูจีวรวิหาร,เขตธนบุรี,-0.65,2,D,13.72878569,100.4911418
180,0180,A,ลานวัดใหญ่ศรีสุพรรณ,เขตธนบุรี,-0.6,0.2,H,13.72995124,100.4883695
181,0181,A,ลานวัดใหม่ยายนุ้ย,เขตธนบุรี,-0.65,0.2,H,13.71215333,100.4684905
182,0182,A,ลานวัดอินทารามวรวิหาร,เขตธนบุรี,-0.7,0.2,H,13.72370147,100.4829332
183,0183,A,สวนโรงพยาบาลสมเด็จพระปิ่นเกล้า,เขตธนบุรี,2,2,A,13.70974351,100.4865189
186,0186,A,สวนมหาวิทยาลัยราชภัฏบ้านสมเด็จเจ้าพระยา,เขตธนบุรี,1,0,F,13.73283772,100.4896592
188,0188,A,สนามกีฬามหาวิทยาลัยเทคโนโลยีพระจอมเกล้า พระนครเหนือ,เขตบางซื่อ,1.4,0,F,13.82269393,100.512058
189,0189,A,สนามกีฬาโรงเรียนโยธินบูรณะ,เขตบางซื่อ,2,0.4,F,13.81394867,100.5206888
190,0190,A,ลาน Lotus's ประชาชื่น,เขตบางซื่อ,-2.15,0,H,13.80626441,100.5338253
191,0191,A,ลาน Big C วงศ์สว่าง,เขตบางซื่อ,-2.2,0,H,13.82706221,100.5279225
192,0192,A,ลาน Gateway บางซื่อ,เขตบางซื่อ,-2.25,0,H,13.80608887,100.5235304
193,0193,A,ลานวัดทองสุทธาราม,เขตบางซื่อ,-0.75,0.2,H,13.83347146,100.5300073
194,0194,A,ลานวัดบางโพโอมาวาส,เขตบางซื่อ,-0.6,-1,E,13.80895973,100.5189981
195,0195,A,ลานวัดประชาศรัทธาธรรม (กรุงเทพมหานคร),เขตบางซื่อ,-0.7,1,D,13.81866553,100.5186329
196,0196,A,ลานวัดประดู่ธรรมาธิปัตย์,เขตบางซื่อ,-0.8,0.2,H,13.80149244,100.5235686
197,0197,A,ลานวัดมัชฌันติการาม,เขตบางซื่อ,-0.75,1,D,13.82271427,100.5173305
198,0198,A,ลานวัดเลียบราษฎร์บำรุง,เขตบางซื่อ,-0.8,1,D,13.82950757,100.5216715
199,0199,A,ลานวัดเวตวันธรรมาวาส,เขตบางซื่อ,-0.85,1,D,13.81595986,100.5290773
200,0200,A,ลานวัดสร้อยทอง,เขตบางซื่อ,-0.85,0.2,H,13.81279699,100.5181174
205,0205,A,ลานกีฬาชุุมชนบ้านพักรถไฟก่อสร้าง,เขตบางซื่อ,2.4,0.4,F,13.80772201,100.5392901
211,0211,A,ลานกีฬาเชิงสะพานพระราม 7,เขตบางซื่อ,2.4,2,A,13.81715263,100.5152982
215,0215,A,ลานกีฬาชุมชนสมบุญดี,เขตบางซื่อ,2.35,1,A,13.82303341,100.5203978
216,0216,A,ลานกีฬาชุมชนซอยวัดหลวง,เขตบางซื่อ,2.3,1,A,13.82398121,100.5214021
217,0217,A,ลานกีฬาโรงเรียนวัดเลียบราษฎร์บำรุง,เขตบางซื่อ,2.15,-0.6,B,13.82880998,100.5209864
218,0218,A,ลานกีฬาชุมชนวัดเลียบ,เขตบางซื่อ,2.1,-0.6,B,13.8288668,100.5194208
219,0219,A,ลานกีฬาโรงเรียนวัดสุวรรณสุทธารามวิทยา,เขตบางซื่อ,2.05,-0.6,B,13.83332096,100.5292411
222,0222,A,ลานกีฬาโรงเรียนวัดทองสุทธาราม,เขตบางซื่อ,1.95,-0.6,B,13.83298865,100.5297037
224,0224,A,ลานกีฬาประชานุกูล,เขตบางซื่อ,2.35,2,A,13.83025015,100.5373736
225,0225,A,ลานกีฬาใต้ทางด่วนศรีรัข,เขตบางซื่อ,2.3,2,A,13.84358226,100.5335546
226,0226,A,ลานกีฬาวัดเชิงหวาย,เขตบางซื่อ,2.35,0.4,F,13.81505761,100.529016
230,0230,A,สวนโรงเรียนผะดุงศิษย์พิทยา,เขตบางซื่อ,-1.85,-0.6,E,13.80449284,100.5336123
231,0231,A,สวนสาธารณะสะพานพระราม 7,เขตบางซื่อ,2.25,2,A,13.81597749,100.5158706
232,0232,A,สวนบริษัทปูนซีเมนต์ไทย,เขตบางซื่อ,-1.9,-0.6,E,13.80480483,100.5371114
233,0233,A,สวนหย่อมประชานุกูล,เขตบางซื่อ,2.2,2,A,13.83020514,100.5385089
235,0235,A,สนามกีฬาบมจ CAT Telecom,เขตหลักสี่,-1.95,-0.6,E,13.88474086,100.5694627
236,0236,A,สนามกีฬามหาวิทยาลัยธุรกิจบัณฑิต,เขตหลักสี่,-0.9,0.2,H,13.86985,100.550244
237,0237,A,ลานตลาดเจเจกรีน 2,เขตหลักสี่,-0.1,0,C,13.868256,100.550565
238,0238,A,สนามกีฬาบุญยะจินดา,เขตหลักสี่,1.9,-0.6,B,13.86742796,100.578116
239,0239,A,สนามกีฬากองบัญชาการกองทัพไทย,เขตหลักสี่,1.85,-0.6,B,13.85594356,100.6084665
240,0240,A,ลาน สวน และพิ้นที่ศูนย์ราชการแจ้งวัฒนะ,เขตหลักสี่,2.4,-2,B,13.88134674,100.564937
241,0241,A,ลานการประปานครหลวง สำนักงานใหญ่,เขตหลักสี่,2.35,-2,B,13.87913965,100.5511814
242,0242,A,สนามกีฬาโรงเรียนราชวินิต บางเขน,เขตหลักสี่,1.8,-0.6,B,13.85822628,100.5545847
243,0243,A,ราชพฤกษ์กอล์ฟคลับ,เขตหลักสี่,0,-2,I,13.87166141,100.5645499
244,0244,A,Lotus's แจ้งวัฒนะ,เขตหลักสี่,-2.3,0,H,13.89507379,100.5561495
245,0245,A,ลาน IT Square หลักสี่,เขตหลักสี่,-2,0.4,H,13.88591485,100.58141
246,0246,A,ลาน The Avenue แจ้งวัฒนะ,เขตหลักสี่,-1.6,0.4,H,13.89441354,100.5587713
247,0247,A,ลาน Big C แจ้งวัฒนะ,เขตหลักสี่,-1.65,0.4,H,13.89368784,100.5597881
248,0248,A,ลานวัดหลักสี่,เขตหลักสี่,-0.9,1,D,13.88851672,100.5823876
249,0249,A,ลานกีฬาชุมชนตรีเพชร 2,เขตหลักสี่,-0.15,0,C,13.86794588,100.5812381
250,0250,A,ลานกีฬาเคหะชุมชนบางบัว,เขตหลักสี่,-0.2,0,C,13.86012927,100.5823462
251,0251,A,ลานกีฬาซอยพัชราภา,เขตหลักสี่,-0.25,0,C,13.88867591,100.587971
252,0252,A,ลานกีฬาโรงเรียนวัดหลักสี่,เขตหลักสี่,1.75,-0.6,B,13.88924989,100.5826571
253,0253,A,ลานกีฬาใต้สะพานข้ามแยกวิภาวดี,เขตหลักสี่,-0.3,0,C,13.8849233,100.5804487
254,0254,A,ลานกีฬาการเคหะทุ่งสองห้อง แฟลต6,เขตหลักสี่,0,0.4,C,13.90054237,100.5891262
255,0255,A,ลานกีฬาโรงเรียนเคหะทุ่งสองห้องวิทยา 1,เขตหลักสี่,1.7,-0.6,B,13.90073098,100.583985
256,0256,A,ลานกีฬาโรงเรียนเคหะทุ่งสองห้องวิทยา 2,เขตหลักสี่,2,-0.7,B,13.90248785,100.578998
257,0257,A,ลานกีฬากองทหารพลาธิการ,เขตหลักสี่,2.3,0.4,F,13.89144646,100.5718511
258,0258,A,ลานกีฬากองทหารสรรพาวุธเบา,เขตหลักสี่,2.25,0.4,F,13.8904174,100.5752777
259,0259,A,ลานเอนกประสงค์ทุ่งสองห้อง,เขตหลักสี่,0.4,0.4,C,13.88527709,100.5605775
260,0260,A,ลานกีฬาโรงเรียนทุ่งสองห้อง,เขตหลักสี่,2.2,0.4,F,13.88518294,100.5610173
261,0261,A,ลานกีฬาชุุมชนเมืองทองนิเวศน์,เขตหลักสี่,0.35,0.4,C,13.90434363,100.5627983
262,0262,A,ลานกีฬาเคหะชุมชนท่าทราย,เขตหลักสี่,2.15,0.4,F,13.87263411,100.5553583
263,0263,A,สวนสาธารณะบึงสีกัน,เขตหลักสี่,0.3,0.4,C,13.90434363,100.5627983
264,0264,A,สวนหมู่บ้าน City Lagoon,เขตหลักสี่,-2.05,-0.6,E,13.86589935,100.5505964
266,0266,A,สวนสาธารณะสถานีโทรทัศน์ไทย TPBS,เขตหลักสี่,1.4,-1,B,13.86745232,100.5731966
267,0267,A,สวนหย่อมสถาบันบัณฑิตย์ศึกษาจุฬาภรณ์,เขตหลักสี่,0.25,0.4,C,13.88260039,100.5792853
269,0269,A,สวนมหาวิทยาลัยธุรกิจบัณฑิต,เขตหลักสี่,-0.95,0.2,H,13.87104982,100.5500672
270,0270,A,สวนโรงเรียนไผทอุดมศึกษา,เขตหลักสี่,2.1,0.4,F,13.87641281,100.5783091
272,0272,A,ลานและพื้นที่ True Digital Park,เขตพระโขนง,-1.7,0.4,H,13.68474406,100.6109708
273,0273,A,ลานและพื้นที่ Phyll,เขตพระโขนง,-1.75,0.4,H,13.70296286,100.6021194
274,0274,A,โรงเรียนนานาชาติ Anglo Singapore,เขตพระโขนง,-2,-2,E,13.68774098,100.6092551
275,0275,A,โรงเรียนพิพัฒนา,เขตพระโขนง,-1.8,0.4,H,13.68842209,100.6075992
276,0276,A,สวนหมู่บ้านพรไพลิน,เขตพระโขนง,-2.1,-0.6,E,13.68797045,100.636615
278,0278,A,ลานวัดธรรมมงคล,เขตพระโขนง,-0.95,1,D,13.68784667,100.6149902
279,0279,A,ลานวัดบุญรอดธรรมาราม,เขตพระโขนง,-1.05,0.2,H,13.69372315,100.5938325
280,0280,A,ลานวัดราษฎร์ศรัทธาธรรม,เขตพระโขนง,-1.1,0.2,H,13.703133,100.6227721
281,0281,A,ลานวัดวชิรธรรมสาธิตวรวิหาร,เขตพระโขนง,-1.05,1,D,13.69086284,100.6348517
282,0282,A,ลานกีฬาสำนักงานเขตพระโขนง,เขตพระโขนง,2.05,0.4,F,13.70241548,100.6020821
283,0283,A,ลานกีฬาชุมชนเล็กเที่ยง,เขตพระโขนง,0.2,0.4,C,13.70081125,100.5967091
284,0284,A,ลานกีฬาโรงเรียนบางจาก(นาคเผื่อนอุปถัมภ์),เขตพระโขนง,2.4,-0.7,B,13.69649451,100.595376
285,0285,A,ลานกีฬาโรงเรียนพระโขนงพิทยา,เขตพระโขนง,2.35,-0.7,B,13.69509373,100.5914539
286,0286,A,ลานกีฬาวัดบุญรอดธรรมาราม,เขตพระโขนง,2.25,1,A,13.69405552,100.5937716
287,0287,A,ลานกีฬาชุุมชนข้างโรงกลั่นน้ำมันบางจาก,เขตพระโขนง,0.15,0.4,C,13.69149877,100.5958632
288,0288,A,ลานกีฬาโรงเรียนศรีวัฒนา(วิทยาลัยเทคโนโลยีศรีวัฒนาบริหารธุรกิจ),เขตพระโขนง,0.1,0.4,C,13.68488131,100.6088782
290,0290,A,ลานกีฬาโรงเรียนสหพาณิชย์(วิทยาลัยเทคโนโลยีสหะพาณิชย์บริหารธุรกิจ),เขตพระโขนง,0.05,0.4,C,13.69174394,100.6110227
291,0291,A,ลานกีฬาโรงเรียนวัดธรรมมงคล,เขตพระโขนง,2.3,-0.7,B,13.68857923,100.6149339
292,0292,A,ลานกีฬาวัดธรรมมงคล,เขตพระโขนง,2.2,1,A,13.6874177,100.6149913
293,0293,A,ลานกีฬาชุมชนเชลียง 5 (ซอยอุดมสุข 45),เขตพระโขนง,-0.05,0.4,C,13.67814115,100.632428
294,0294,A,ลานกีฬาชุมชนบุญกุศล,เขตพระโขนง,-0.1,0.4,C,13.68498713,100.6182535
295,0295,A,ลานกีฬาโรงเรียนวชิรธรรมสาธิต,เขตพระโขนง,2.25,-0.7,B,13.69147958,100.6334773
296,0296,A,ลานกีฬาพงษ์สังข์เจริญสุข,เขตพระโขนง,-0.15,0.4,C,13.70317406,100.6179431
297,0297,A,ลานกีฬาโรงเรียนวัดราษฎร์ศรัทธาธรรม,เขตพระโขนง,2.2,-0.7,B,13.70248933,100.6222577
298,0298,A,ลานกีฬาหมู่บ้านนิรันดร์วิลล่า,เขตพระโขนง,-0.2,0.4,C,13.70118559,100.6275651
299,0299,A,ลานกีฬาซอยรุ่งอรุณ,เขตพระโขนง,-0.25,0.4,C,13.69712908,100.6343701
300,0300,A,ลานกีฬาชุมชนสุนทรธรรม,เขตพระโขนง,-0.3,0.4,C,13.69603602,100.6300192
301,0301,A,ลานกีฬาหมูู่่บ้านศรันย์จิตต์ 4,เขตพระโขนง,0,0.3,C,13.69406947,100.6293038
302,0302,A,ลานกีฬาหมู่บ้านสุขสุวรรณ,เขตพระโขนง,0.4,0.3,C,13.69345271,100.6352853
303,0303,A,สวนพระคริสตธรรมเพ็นเทคอสในประเทศไทย,เขตพระโขนง,0.2,-1,I,13.67992712,100.6266492
304,0304,A,สวนโรงเรียนพระโขนงวิทยาลัย,เขตพระโขนง,2.15,-0.7,B,13.69513505,100.591219
305,0305,A,สวนกรมการขนส่งทางบก,เขตพระโขนง,1.95,0.4,F,13.69684286,100.6102913
306,0306,A,โรงเรียนศรีวัฒนาพาณิชยการ(วิทยาลัยเทคโนโลยีศรีวัฒนาบริหารธุรกิจ),เขตพระโขนง,0.35,0.3,C,13.68460471,100.6084643
308,0308,A,สวนวารีภิรมย์,เขตคลองสามวา,1.9,0.4,F,13.84840146,100.7753554
309,0309,A,Safari World,เขตคลองสามวา,-1.6,-2,E,13.86679209,100.7055825
310,0310,A,สวนหมู่บ้านกฤษฎานคร,เขตคลองสามวา,-2.15,-0.6,E,13.84060859,100.7633523
311,0311,A,สวนหมู่บ้านฟอเรสพาร์ค,เขตคลองสามวา,-2.2,-0.6,E,13.80993851,100.7436629
312,0312,A,The Legacy Golf CLub,เขตคลองสามวา,-1.65,-2,E,13.87714093,100.7021094
313,0313,A,สวนหมู่บ้านบุรีรมย์,เขตคลองสามวา,-2.25,-0.6,E,13.86739445,100.7122311
314,0314,A,สวนหมู่บ้านบุศรินทร์ กม. 8,เขตคลองสามวา,-2.3,-0.6,E,13.86577439,100.6971655
315,0315,A,สวนหมู่บ้าน Panya Natural Park,เขตคลองสามวา,-2,-0.7,E,13.84132798,100.6903217
316,0316,A,สวนศูนย์ปฏิบัติวิปัสสนากรรมฐาน ธรรมธานี,เขตคลองสามวา,0.3,0.3,C,13.8919342,100.7484828
318,0318,A,สวนหมู่บ้าน Sapsiri,เขตคลองสามวา,-1.6,-0.7,E,13.89301366,100.7524713
319,0319,A,สวนหมู่บ้าน KC Garden Lake Paradise,เขตคลองสามวา,-1.65,-0.7,E,13.88367088,100.7322631
320,0320,A,วัดไท่ฮัว ฝอกวงซัน,เขตคลองสามวา,2.15,1,A,13.85636669,100.6779588
321,0321,A,ลานวัดสัมมาชัญญาวาส,เขตคลองสามวา,-1.1,1,D,13.85409619,100.6935494
322,0322,A,ลานวัดคู้บอน,เขตคลองสามวา,-1.15,1,D,13.8530417,100.671594
323,0323,A,ลานวัดจินดิตวิหาร,เขตคลองสามวา,-1.2,1,D,13.8418044,100.7422346
324,0324,A,ลานวัดบัวแก้วศรัทธาธรรม,เขตคลองสามวา,-1.25,1,D,13.85038908,100.7303473
325,0325,A,ลานวัดแป้นทองโสภาราม,เขตคลองสามวา,-1.3,1,D,13.8864431,100.7068222
326,0326,A,ลานวัดพระยาสุเรนทร์,เขตคลองสามวา,-1,1.4,D,13.87395053,100.6861893
327,0327,A,ลานวัดลำกะดาน,เขตคลองสามวา,-0.6,1.4,D,13.91782978,100.7526165
328,0328,A,ลานวัดศรีสุขสถาพรราษฎร์ศรัทธาธรรม,เขตคลองสามวา,-0.65,1.4,D,13.91978383,100.7912958
329,0329,A,ลานวัดสุขใจ,เขตคลองสามวา,-0.7,1.4,D,13.87035101,100.774089
330,0330,A,ลานวัดสุทธิสะอาด,เขตคลองสามวา,-0.75,1.4,D,13.87946587,100.7310455
331,0331,A,ลานกีฬาโรงเรียนวัดคู้บอน,เขตคลองสามวา,2.1,1,A,13.85407967,100.673282
332,0332,A,ลานกีฬาชุมชนร่วมใจพัฒนา คลองกีบหมู,เขตคลองสามวา,0.25,0.3,C,13.83959982,100.7110639
333,0333,A,ลานกีฬาโรงเรียนวัดพระยาสุเรนทร์,เขตคลองสามวา,2.1,-0.7,B,13.87388175,100.6869744
334,0334,A,ลานกีฬาโรงเรียนวัดแป้นทอง,เขตคลองสามวา,2.05,-0.7,B,13.88586728,100.7088353
335,0335,A,ลานกีฬาสุเหร่าสามวา,เขตคลองสามวา,0.2,0.3,C,13.90592264,100.7263811
336,0336,A,ลานกีฬาสุขสันต์พัฒนา,เขตคลองสามวา,0.15,0.3,C,13.90708158,100.72897
337,0337,A,ลานกีฬาซารีฟะอุทิศ,เขตคลองสามวา,0.1,0.3,C,13.91028383,100.7211837
338,0338,A,ลานกีฬาโรงเรียนสุเหร่าสามวา,เขตคลองสามวา,1.95,-0.7,B,13.90635097,100.727633
339,0339,A,ลานกีฬาโรงเรียนวัดลำกะดาน,เขตคลองสามวา,1.9,-0.7,B,13.91759057,100.7531606
340,0340,A,ลานกีฬาดารุสลามสร้างสรรค์,เขตคลองสามวา,0.05,0.3,C,13.91573341,100.7688682
341,0341,A,ลานกีฬาโรงเรียนสุุเหร่าคลองสี่,เขตคลองสามวา,1.85,-0.7,B,13.91278677,100.7703989
342,0342,A,ลานกีฬาโรงเรียนวัดศรีสุก,เขตคลองสามวา,-0.05,0.3,C,13.91864804,100.7914275
343,0343,A,ลานกีฬาหมู่ 15 พัฒนา,เขตคลองสามวา,-0.1,0.3,C,13.91119595,100.776683
344,0344,A,ลานกีฬาโฉมสบายเรื่อย,เขตคลองสามวา,-0.15,0.3,C,13.88696449,100.7306667
345,0345,A,ลานกีฬาหมูู่บ้านบุรีรมย์,เขตคลองสามวา,-0.2,0.3,C,13.86656518,100.7137722
346,0346,A,ลานกีฬากลางคลองสอง,เขตคลองสามวา,-0.25,0.3,C,13.86239884,100.6991502
347,0347,A,ลานกีฬาประชาราษฎร์อุปถัมภ์วิทยา,เขตคลองสามวา,-0.3,0.3,C,13.84392449,100.6959392
348,0348,A,ลานกีฬาบ้านลำกะโหลกหมู่ 3,เขตคลองสามวา,0,0.2,C,13.84306291,100.6943522
349,0349,A,ลานกีฬาเฟื่องฟ้าวิลเลจ,เขตคลองสามวา,0.4,0.2,C,13.82382354,100.7018215
350,0350,A,ลานกีฬาโรงเรียนบางชัน,เขตคลองสามวา,1.8,-0.7,B,13.81791305,100.6975898
351,0351,A,ลานกีฬาโรงเรียนสุเหร่าคลอง 1,เขตคลองสามวา,1.75,-0.7,B,13.84240541,100.7107533
352,0352,A,ลานกีฬาโรงเรียนวัดบัวแก้ว,เขตคลองสามวา,1.7,-0.7,B,13.8507052,100.7308272
353,0353,A,ลานกีฬาโรงเรียนสุเหร่าแสนแสบ,เขตคลองสามวา,2,-0.8,B,13.8258864,100.7512381
354,0354,A,ลานกีฬาโรงเรียนสันนิธิอิสลาม,เขตคลองสามวา,2.4,-0.8,B,13.82910681,100.7603231
355,0355,A,ลานกีฬาอาบูพัฒนาหมู่ 7,เขตคลองสามวา,0.35,0.2,C,13.83462355,100.7685675
356,0356,A,ลานกีฬาโรงเรียนกมาลุลอิสลาม 2,เขตคลองสามวา,2.35,-0.8,B,13.83506548,100.7725752
357,0357,A,ลานกีฬาโรงเรียนกมาลุลอิสลาม หมู่ 5,เขตคลองสามวา,2.3,-0.8,B,13.84475612,100.7768538
358,0358,A,ลานกีฬาชุุมชนห้าพี่น้องพัฒนา,เขตคลองสามวา,0.3,0.2,C,13.85800495,100.7906401
359,0359,A,ลานกีฬาโรงเรียนสุเหร่าเกาะขุนเณร,เขตคลองสามวา,2.25,-0.8,B,13.85535194,100.7860466
360,0360,A,ลานกีฬาโรงเรียนวัดสุขใจ,เขตคลองสามวา,2.2,-0.8,B,13.87195732,100.7738866
361,0361,A,ลานกีฬาโรงเรียนบ้านแบนชะโด,เขตคลองสามวา,2.15,-0.8,B,13.87675596,100.7835853
362,0362,A,สวนหมู่บ้านคัสคาน่า ถนนพระยาสุเรนทร์,เขตคลองสามวา,-1.7,-0.7,E,13.86707324,100.6876145
363,0363,A,สวนหมู่บ้านประภาทรัพย์ รามอินทรา-หทัยราษฎร์,เขตคลองสามวา,-1.75,-0.7,E,13.88996677,100.7186966
364,0364,A,สวนหมู่บ้านฮาบีเทีย ยาร์ด,เขตคลองสามวา,-1.8,-0.7,E,13.87665856,100.7115929
365,0365,A,สวนหมู่บ้านพาทาโกเนีย ซาฟารี-รามอินทรา,เขตคลองสามวา,-1.85,-0.7,E,13.85725961,100.7093353
366,0366,A,สวนหมู่บ้านเดอะ ริคโค เรสซิเด้น,เขตคลองสามวา,-1.9,-0.7,E,13.89718861,100.7173491
367,0367,A,สวนหมู่บ้าน KZ การ์เด้นโฮม,เขตคลองสามวา,-1.95,-0.7,E,13.88870506,100.7401436
368,0368,A,สวนหมู่บ้าน K RIZ town,เขตคลองสามวา,-2.05,-0.7,E,13.89121349,100.6981956
369,0369,A,สวนหมู่บ้านชัยพฤกษ์ พระยาสุเรนทร์ 30,เขตคลองสามวา,-2.1,-0.7,E,13.83805722,100.7057032
370,0370,A,สวนหมู่บ้านเต็มสิริ แกรนด์ ถนนสามวา,เขตคลองสามวา,-2.15,-0.7,E,13.83848468,100.7254403
371,0371,A,สวนหมู่บ้านทัศคานี นิมิตใหม่-ประชาร่วมใจ,เขตคลองสามวา,-2.2,-0.7,E,13.84489642,100.7685034
372,0372,A,สวนหมู่บ้านพนาสนธิ์ ไพรเวท โฮม หทัยราษฏร์ 37 ถนนหทัยราษฏร์,เขตคลองสามวา,-2.25,-0.7,E,13.87360711,100.7177544
373,0373,A,สวนหมู่บ้านพฤกษ์ลดา(เฟส 2) ถนนหทัยราษฏร์,เขตคลองสามวา,-2.3,-0.7,E,13.90986218,100.7139216
374,0374,A,สวนหมู่บ้านพฤกษาวิวล์ 62/2 ถนนนิมิตใหม่,เขตคลองสามวา,-2,-0.8,E,13.85302888,100.7310685
375,0375,A,สวนหมู่บ้านพฤกษาวิวล์ วงแหวนรามอินทรา ซอยสุเหร่าคลองหนึ่ง 13 ถนนสุเหร่าคลองหนึ่ง,เขตคลองสามวา,-1.6,-0.8,E,13.84766415,100.7085637
376,0376,A,สวนหมู่บ้านฮาบีเทียโมทีฟ ถนนปัญญา-อินทรา,เขตคลองสามวา,-1.65,-0.8,E,13.87546179,100.7135446
377,0377,A,สวนหมู่บ้านบุรีรมย์ ซาฟารี,เขตคลองสามวา,-1.7,-0.8,E,13.86676137,100.7133871
378,0378,A,สวนหมู่บ้านบุรีรมย์ คู้บอน,เขตคลองสามวา,-1.75,-0.8,E,13.86133856,100.6868964
379,0379,A,สวนหมู่บ้านแลนซิโอ ซอยคู้บอน 38 ถนนคู้บอน,เขตคลองสามวา,-1.8,-0.8,E,13.8505012,100.6836014
380,0380,A,สวนหมู่บ้าน centro ซอยพระยาสุเรนทร์ 21,เขตคลองสามวา,-1.85,-0.8,E,13.83262012,100.6965163
381,0381,A,สวนหมู่บ้านจามจุรีวิลล่า ถนนหทัยราษฏร์,เขตคลองสามวา,-1.9,-0.8,E,13.86371953,100.7288279
382,0382,A,สวนหมู่บ้านฮาบีเทีย vent ถนนปัญญา-ซาฟารี,เขตคลองสามวา,-1.95,-0.8,E,13.87352414,100.7104706
383,0383,A,สวนหมู่บ้านพฤกษ์ลดา ถนนหทัยราษฎร์,เขตคลองสามวา,-2.05,-0.8,E,13.91007157,100.7169906
384,0384,A,สวนหมู่บ้านชัยพฤกษ์รามอินทรา ถนนคู้บอน,เขตคลองสามวา,-2.1,-0.8,E,13.85268994,100.6866738
385,0385,A,สวนหมู่บ้านสัมมากรมีนบุรี 2,เขตคลองสามวา,-2.15,-0.8,E,13.8437468,100.7290302
387,0387,A,สวนหมู่บ้านเนเบอร์โฮม,เขตคลองสามวา,-2.2,-0.8,E,13.91163675,100.6866134
388,0388,A,สวนหมู่บ้านสราญสิริ ถนนปัญญาอินทรา,เขตคลองสามวา,-2.25,-0.8,E,13.85307115,100.7075515
389,0389,A,สวนหมู่บ้านสราญสิริ 2,เขตคลองสามวา,-2.3,-0.8,E,13.85100862,100.7063016
390,0390,A,สวนหมู่บ้านพร้อมพัฒน์ไพร์ม ถนนปัญญา-ซาฟารี,เขตคลองสามวา,-2,-0.9,E,13.88115753,100.710412
391,0391,A,สวนหมู่บ้านบุราสิริ,เขตคลองสามวา,-1.6,-0.9,E,13.85386683,100.7113371
392,0392,A,สวนหมู่บ้านฮาบีเทีย ออดิ่ท(Habitia Orbit),เขตคลองสามวา,-1.65,-0.9,E,13.9073407,100.7143122
393,0393,A,สวนหมู่บ้าน Pleno ถนนเลียบคลองสอง,เขตคลองสามวา,-1.7,-0.9,E,13.85945831,100.7034246
394,0394,A,สวนหมู่บ้านพนาสนธิ์การ์เด้นโฮม 5,เขตคลองสามวา,-1.75,-0.9,E,13.87924044,100.7256506
395,0395,A,สวนหมู่บ้าน เค.ซี คลัสเตอร์ ถนนไทยรามัญ,เขตคลองสามวา,-1.8,-0.9,E,13.90171123,100.7119682
396,0396,A,สวนหมู่บ้านเศรษฐสิริ,เขตคลองสามวา,-1.85,-0.9,E,13.85723284,100.7066753
397,0397,A,สวนหมู่บ้านลีฟวิ่งลากูน,เขตคลองสามวา,-1.9,-0.9,E,13.86111289,100.6906765
398,0398,A,สวนหมู่บ้านไพรเวทเลคการ์เด้น+,เขตคลองสามวา,-1.95,-0.9,E,13.86248006,100.6916718
399,0399,A,สวนหมู่บ้านวรารักษ์,เขตคลองสามวา,-2.05,-0.9,E,13.8684165,100.7183424
400,0400,A,สวนไพศาลปาร์ควิวล์,เขตคลองสามวา,-2.1,-0.9,E,13.87057051,100.7586556
401,0401,A,สวนหมู่บ้านภัทรินทร์ 2,เขตคลองสามวา,-2.15,-0.9,E,13.83788562,100.7181803
402,0402,A,สวนหมู่บ้านนลินเรสซิเด้นซ์,เขตคลองสามวา,-2.2,-0.9,E,13.8328653,100.7167083
403,0403,A,สวนหมู่บ้าน มัณฑนา,เขตคลองสามวา,-2.25,-0.9,E,13.84705074,100.6760854
404,0404,A,สวนหมู่บ้านเมอร์ราญาเพลส,เขตคลองสามวา,-2.3,-0.9,E,13.8545578,100.6784351
405,0405,A,สวนหมู่บ้านบุศรินทร์ซอย ร.ร. กลางคลองสองถนนพระยาสุเรนทร์ แขวงสามวาตะวันตก,เขตคลองสามวา,-2,-1.1,E,13.86548131,100.6972586
406,0406,A,สวนหมู่บ้านชัยพฤกษ์ รามอินทรา วงแหวน 2,เขตคลองสามวา,-1.6,-1.1,E,13.8498373,100.6848424
407,0407,A,สวนหมู่บ้านพร้อมพัฒน์ แขวงสามวาตะวันตก,เขตคลองสามวา,-1.65,-1.1,E,13.87740996,100.7121599
408,0408,A,สวนหมู่บ้านฮาบิเทีย ซาฟารี,เขตคลองสามวา,-1.7,-1.1,E,13.87520804,100.7096782
409,0409,A,สวนหมู่บ้านเอื้ออาทร โครงการถนนปัญญา-รามอินทรา,เขตคลองสามวา,-1.75,-1.1,E,13.85180383,100.7013184
410,0410,A,สำนักปฏิบัติธรรมวิริยะธัมโม ถ.วัดสุขใจ,เขตคลองสามวา,0.15,-1,I,13.86271851,100.7527526
411,0411,A,มัสยิดกมาลุลอิสลาม ถนนประชาร่วมใจ,เขตคลองสามวา,0.25,0.2,C,13.83487322,100.771876
412,0412,A,สวนป่าบึงแบนตาโพแขวงบางชัน,เขตคลองสามวา,0.35,2,G,13.83930103,100.7030383
